[{"OBJECT_NAME":"OBJECT J","OBJECT_ID":"2025-155J","EPOCH":"2026-03-09T22:09:22.347648","MEAN_MOTION":15.2758258,"ECCENTRICITY":0.00088188,"INCLINATION":97.4475,"RA_OF_ASC_NODE":37.3123,"ARG_OF_PERICENTER":150.071,"MEAN_ANOMALY":210.1035,"EPHEMERIS_TYPE":0,"CLASSIFICATION_TYPE":"U","NORAD_CAT_ID":64884,"ELEMENT_SET_NO":999,"REV_AT_EPOCH":6559,"BSTAR":0.00051444498,"MEAN_MOTION_DOT":0.00013827,"MEAN_MOTION_DDOT":0},{"OBJECT_NAME":"STARLINK-35810","OBJECT_ID":"2025-268U","EPOCH":"2026-03-09T03:18:54.821664","MEAN_MOTION":15.2757036,"ECCENTRICITY":0.00014395,"INCLINATION":43.0021,"RA_OF_ASC_NODE":350.3294,"ARG_OF_PERICENTER":248.8462,"MEAN_ANOMALY":111.2236,"EPHEMERIS_TYPE":0,"CLASSIFICATION_TYPE":"U","NORAD_CAT_ID":66575,"ELEMENT_SET_NO":999,"REV_AT_EPOCH":1787,"BSTAR":0.0015059189,"MEAN_MOTION_DOT":0.00041398,"MEAN_MOTION_DDOT":0}]
